{"type": "FeatureCollection", "features": [ {"type": "Feature", "properties": {"norad_id": 66369, "name": "STARLINK-35795", "group": "last-30-days", "lat": 48.71139953828938, "lon": 67.31739264506557, "alt_km": 334.249561646212, "timestamp": "2025-12-06T11:28:09.783867+00:00", "meta": {"OBJECT_NAME": "STARLINK-35795", "OBJECT_ID": "2025-254X", "EPOCH": "2025-12-04T02:39:36.815328", "MEAN_MOTION": 15.74349696, "ECCENTRICITY": 0.00030446, "INCLINATION": 53.1567, "RA_OF_ASC_NODE": 317.7168, "ARG_OF_PERICENTER": 147.1731, "MEAN_ANOMALY": 212.9479, "EPHEMERIS_TYPE": 0, "CLASSIFICATION_TYPE": "U", "NORAD_CAT_ID": 66369, "ELEMENT_SET_NO": 999, "REV_AT_EPOCH": 432, "BSTAR": 0.0021458163, "MEAN_MOTION_DOT": 0.00328479, "MEAN_MOTION_DDOT": 0}, "tle": {"line1": "1 66369U 25254X   25338.11084277  .00328479  00000+0  21458-2 0  9993", "line2": "2 66369  53.1567 317.7168 0003044 147.1731 212.9479 15.74349696  4324"}}, "geometry": {"type": "Point", "coordinates": [67.31739264506557, 48.71139953828938]}}, {"type": "Feature", "properties": {"norad_id": 66370, "name": "STARLINK-35824", "group": "last-30-days", "lat": 48.97504291237746, "lon": 66.43361807205366, "alt_km": 337.7839562420786, "timestamp": "2025-12-06T11:28:09.783878+00:00", "meta": {"OBJECT_NAME": "STARLINK-35824", "OBJECT_ID": "2025-254Y", "EPOCH": "2025-12-05T10:38:04.231392", "MEAN_MOTION": 15.74349916, "ECCENTRICITY": 7.28e-05, "INCLINATION": 53.157, "RA_OF_ASC_NODE": 311.0938, "ARG_OF_PERICENTER": 100.1215, "MEAN_ANOMALY": 259.9887, "EPHEMERIS_TYPE": 0, "CLASSIFICATION_TYPE": "U", "NORAD_CAT_ID": 66370, "ELEMENT_SET_NO": 999, "REV_AT_EPOCH": 453, "BSTAR": 0.0018787045, "MEAN_MOTION_DOT": 0.00286047, "MEAN_MOTION_DDOT": 0}, "tle": {"line1": "1 66370U 25254Y   25339.44310453  .00286047  00000+0  18787-2 0  9995", "line2": "2 66370  53.1570 311.0938 0000728 100.1215 259.9887 15.74349916  4536"}}, "geometry": {"type": "Point", "coordinates": [66.43361807205366, 48.97504291237746]}}, {"type": "Feature", "properties": {"norad_id": 66371, "name": "STARLINK-35804", "group": "last-30-days", "lat": 48.51394832632351, "lon": 67.96606570466595, "alt_km": 338.5017477412657, "timestamp": "2025-12-06T11:28:09.783894+00:00", "meta": {"OBJECT_NAME": "STARLINK-35804", "OBJECT_ID": "2025-254Z", "EPOCH": "2025-12-05T00:00:02.999808", "MEAN_MOTION": 15.74124594, "ECCENTRICITY": 0.00011956, "INCLINATION": 53.158, "RA_OF_ASC_NODE": 313.2878, "ARG_OF_PERICENTER": 90.6735, "MEAN_ANOMALY": 278.9415, "EPHEMERIS_TYPE": 0, "CLASSIFICATION_TYPE": "U", "NORAD_CAT_ID": 66371, "ELEMENT_SET_NO": 999, "REV_AT_EPOCH": 567, "BSTAR": 0.0010837698, "MEAN_MOTION_DOT": 0.00160705, "MEAN_MOTION_DDOT": 0}, "tle": {"line1": "1 66371U 25254Z   25339.00003472  .00160705  00000+0  10838-2 0  9999", "line2": "2 66371  53.1580 313.2878 0001195  90.6735 278.9415 15.74124594  5671"}}, "geometry": {"type": "Point", "coordinates": [67.96606570466595, 48.51394832632351]}}, {"type": "Feature", "properties": {"norad_id": 66372, "name": "STARLINK-35821", "group": "last-30-days", "lat": 45.55734400735172, "lon": 76.07134101282708, "alt_km": 334.0337520066032, "timestamp": "2025-12-06T11:28:09.783905+00:00", "meta": {"OBJECT_NAME": "STARLINK-35821", "OBJECT_ID": "2025-254AA", "EPOCH": "2025-12-04T10:15:15.064416", "MEAN_MOTION": 15.7441561, "ECCENTRICITY": 0.0001567, "INCLINATION": 53.1569, "RA_OF_ASC_NODE": 316.1358, "ARG_OF_PERICENTER": 64.6576, "MEAN_ANOMALY": 295.4606, "EPHEMERIS_TYPE": 0, "CLASSIFICATION_TYPE": "U", "NORAD_CAT_ID": 66372, "ELEMENT_SET_NO": 999, "REV_AT_EPOCH": 437, "BSTAR": 0.0030875, "MEAN_MOTION_DOT": 0.00483155, "MEAN_MOTION_DDOT": 0}, "tle": {"line1": "1 66372U 25254AA  25338.42725769  .00483155  00000+0  30875-2 0  9995", "line2": "2 66372  53.1569 316.1358 0001567  64.6576 295.4606 15.74415610  4375"}}, "geometry": {"type": "Point", "coordinates": [76.07134101282708, 45.55734400735172]}}, {"type": "Feature", "properties": {"norad_id": 66373, "name": "STARLINK-35809", "group": "last-30-days", "lat": 47.64587815437819, "lon": 70.61313313032247, "alt_km": 337.2030156649771, "timestamp": "2025-12-06T11:28:09.783916+00:00", "meta": {"OBJECT_NAME": "STARLINK-35809", "OBJECT_ID": "2025-254AB", "EPOCH": "2025-12-05T22:48:29.749248", "MEAN_MOTION": 15.74470017, "ECCENTRICITY": 0.00018945, "INCLINATION": 53.1571, "RA_OF_ASC_NODE": 308.5669, "ARG_OF_PERICENTER": 130.7057, "MEAN_ANOMALY": 229.4127, "EPHEMERIS_TYPE": 0, "CLASSIFICATION_TYPE": "U", "NORAD_CAT_ID": 66373, "ELEMENT_SET_NO": 999, "REV_AT_EPOCH": 461, "BSTAR": 0.0031057751, "MEAN_MOTION_DOT": 0.00487401, "MEAN_MOTION_DDOT": 0}, "tle": {"line1": "1 66373U 25254AB  25339.95034432  .00487401  00000+0  31058-2 0  9997", "line2": "2 66373  53.1571 308.5669 0001894 130.7057 229.4127 15.74470017  4615"}}, "geometry": {"type": "Point", "coordinates": [70.61313313032247, 47.64587815437819]}}, {"type": "Feature", "properties": {"norad_id": 66374, "name": "STARLINK-35831", "group": "last-30-days", "lat": 46.53393663194578, "lon": 73.65637659000855, "alt_km": 336.54442149353054, "timestamp": "2025-12-06T11:28:09.783927+00:00", "meta": {"OBJECT_NAME": "STARLINK-35831", "OBJECT_ID": "2025-254AC", "EPOCH": "2025-12-05T15:10:54.606144", "MEAN_MOTION": 15.7432573, "ECCENTRICITY": 0.00041826, "INCLINATION": 53.1572, "RA_OF_ASC_NODE": 310.1414, "ARG_OF_PERICENTER": 66.4364, "MEAN_ANOMALY": 293.7095, "EPHEMERIS_TYPE": 0, "CLASSIFICATION_TYPE": "U", "NORAD_CAT_ID": 66374, "ELEMENT_SET_NO": 999, "REV_AT_EPOCH": 456, "BSTAR": 0.0026107257, "MEAN_MOTION_DOT": 0.00402992, "MEAN_MOTION_DDOT": 0}, "tle": {"line1": "1 66374U 25254AC  25339.63257646  .00402992  00000+0  26107-2 0  9998", "line2": "2 66374  53.1572 310.1414 0004182  66.4364 293.7095 15.74325730  4566"}}, "geometry": {"type": "Point", "coordinates": [73.65637659000855, 46.53393663194578]}}, {"type": "Feature", "properties": {"norad_id": 66375, "name": "STARLINK-35826", "group": "last-30-days", "lat": 46.135968401707686, "lon": 74.66667003913855, "alt_km": 339.2859271938469, "timestamp": "2025-12-06T11:28:09.783937+00:00", "meta": {"OBJECT_NAME": "STARLINK-35826", "OBJECT_ID": "2025-254AD", "EPOCH": "2025-12-05T22:47:31.140672", "MEAN_MOTION": 15.74195959, "ECCENTRICITY": 9.392e-05, "INCLINATION": 53.1572, "RA_OF_ASC_NODE": 308.5635, "ARG_OF_PERICENTER": 103.0678, "MEAN_ANOMALY": 257.0446, "EPHEMERIS_TYPE": 0, "CLASSIFICATION_TYPE": "U", "NORAD_CAT_ID": 66375, "ELEMENT_SET_NO": 999, "REV_AT_EPOCH": 461, "BSTAR": 0.0019491814, "MEAN_MOTION_DOT": 0.00295154, "MEAN_MOTION_DDOT": 0}, "tle": {"line1": "1 66375U 25254AD  25339.94966598  .00295154  00000+0  19492-2 0  9995", "line2": "2 66375  53.1572 308.5635 0000939 103.0678 257.0446 15.74195959  4612"}}, "geometry": {"type": "Point", "coordinates": [74.66667003913855, 46.135968401707686]}}, {"type": "Feature", "properties": {"norad_id": 66376, "name": "SHIYAN-32 01", "group": "last-30-days", "lat": 37.53548268565208, "lon": -116.7367473684317, "alt_km": 425.73157513581737, "timestamp": "2025-12-06T11:28:09.783947+00:00", "meta": {"OBJECT_NAME": "SHIYAN-32 01", "OBJECT_ID": "2025-255A", "EPOCH": "2025-12-05T22:48:53.116992", "MEAN_MOTION": 15.42445891, "ECCENTRICITY": 0.00135284, "INCLINATION": 52.9951, "RA_OF_ASC_NODE": 210.3549, "ARG_OF_PERICENTER": 21.0916, "MEAN_ANOMALY": 339.0644, "EPHEMERIS_TYPE": 0, "CLASSIFICATION_TYPE": "U", "NORAD_CAT_ID": 66376, "ELEMENT_SET_NO": 999, "REV_AT_EPOCH": 430, "BSTAR": 0.00061092123, "MEAN_MOTION_DOT": 0.00026602, "MEAN_MOTION_DDOT": 0}, "tle": {"line1": "1 66376U 25255A   25339.95061478  .00026602  00000+0  61092-3 0  9995", "line2": "2 66376  52.9951 210.3549 0013528  21.0916 339.0644 15.42445891  4302"}}, "geometry": {"type": "Point", "coordinates": [-116.7367473684317, 37.53548268565208]}}, {"type": "Feature", "properties": {"norad_id": 66377, "name": "CZ-11 DEB", "group": "last-30-days", "lat": 37.13885515674951, "lon": -7.1479149503383, "alt_km": 433.0973349053993, "timestamp": "2025-12-06T11:28:09.783958+00:00", "meta": {"OBJECT_NAME": "CZ-11 DEB", "OBJECT_ID": "2025-255B", "EPOCH": "2025-12-05T22:28:37.521696", "MEAN_MOTION": 15.43848244, "ECCENTRICITY": 0.00137804, "INCLINATION": 52.9946, "RA_OF_ASC_NODE": 210.2661, "ARG_OF_PERICENTER": 18.4068, "MEAN_ANOMALY": 341.7433, "EPHEMERIS_TYPE": 0, "CLASSIFICATION_TYPE": "U", "NORAD_CAT_ID": 66377, "ELEMENT_SET_NO": 999, "REV_AT_EPOCH": 416, "BSTAR": 0.0011386839, "MEAN_MOTION_DOT": 0.00052562, "MEAN_MOTION_DDOT": 0}, "tle": {"line1": "1 66377U 25255B   25339.93654539  .00052562  00000+0  11387-2 0  9995", "line2": "2 66377  52.9946 210.2661 0013780  18.4068 341.7433 15.43848244  4169"}}, "geometry": {"type": "Point", "coordinates": [-7.1479149503383, 37.13885515674951]}}, {"type": "Feature", "properties": {"norad_id": 66378, "name": "SHIYAN-32 02", "group": "last-30-days", "lat": 11.237248469677859, "lon": 18.999674955957733, "alt_km": 439.0248284562831, "timestamp": "2025-12-06T11:28:09.783968+00:00", "meta": {"OBJECT_NAME": "SHIYAN-32 02", "OBJECT_ID": "2025-255C", "EPOCH": "2025-12-05T22:19:52.260672", "MEAN_MOTION": 15.4447419, "ECCENTRICITY": 0.00120177, "INCLINATION": 52.9932, "RA_OF_ASC_NODE": 210.228, "ARG_OF_PERICENTER": 14.9143, "MEAN_ANOMALY": 345.2214, "EPHEMERIS_TYPE": 0, "CLASSIFICATION_TYPE": "U", "NORAD_CAT_ID": 66378, "ELEMENT_SET_NO": 999, "REV_AT_EPOCH": 416, "BSTAR": 0.0014526724, "MEAN_MOTION_DOT": 0.00068709, "MEAN_MOTION_DDOT": 0}, "tle": {"line1": "1 66378U 25255C   25339.93046598  .00068709  00000+0  14527-2 0  9995", "line2": "2 66378  52.9932 210.2280 0012017  14.9143 345.2214 15.44474190  4161"}}, "geometry": {"type": "Point", "coordinates": [18.999674955957733, 11.237248469677859]}}]}